{
  "type": "FeatureCollection",
  "features": [
    {
      "type": "Feature",
      "properties": {
        "norad_id": 30436,
        "name": "FENGYUN 1C DEB",
        "group": "fengyun-1c-debris",
        "lat": 20.036213123724995,
        "lon": 63.522099508148074,
        "alt_km": 754.125789413376,
        "timestamp": "2025-12-12T09:49:09.007937+00:00",
        "meta_object_name": "FENGYUN 1C DEB",
        "meta_object_id": "1999-025AEX",
        "meta_epoch": "2025-12-11T19:52:30.679968",
        "meta_mean_motion": 14.22275581,
        "meta_eccentricity": 0.00972706,
        "meta_inclination": 98.4258,
        "meta_ra_of_asc_node": 239.8681,
        "meta_arg_of_pericenter": 136.234,
        "meta_mean_anomaly": 289.7831,
        "meta_ephemeris_type": 0,
        "meta_classification_type": "U",
        "meta_norad_cat_id": 30436,
        "meta_element_set_no": 999,
        "meta_rev_at_epoch": 96424,
        "meta_bstar": 0.0028788519,
        "meta_mean_motion_dot": 6.675e-05,
        "meta_mean_motion_ddot": 0,
        "tle_line1": "1 30436U 99025AEX 25345.82813287  .00006675  00000+0  28789-2 0  9998",
        "tle_line2": "2 30436  98.4258 239.8681 0097270 136.2340 289.7831 14.22275581964245"
      },
      "geometry": {
        "type": "Point",
        "coordinates": [
          63.522099508148074,
          20.036213123724995
        ]
      }
    },
    {
      "type": "Feature",
      "properties": {
        "norad_id": 30437,
        "name": "FENGYUN 1C DEB",
        "group": "fengyun-1c-debris",
        "lat": 13.433991773796162,
        "lon": -171.71692014665732,
        "alt_km": 593.8830674173469,
        "timestamp": "2025-12-12T09:49:09.007947+00:00",
        "meta_object_name": "FENGYUN 1C DEB",
        "meta_object_id": "1999-025AEY",
        "meta_epoch": "2025-12-11T18:48:07.595136",
        "meta_mean_motion": 14.8797353,
        "meta_eccentricity": 0.00358206,
        "meta_inclination": 98.9221,
        "meta_ra_of_asc_node": 5.4293,
        "meta_arg_of_pericenter": 105.1047,
        "meta_mean_anomaly": 311.0183,
        "meta_ephemeris_type": 0,
        "meta_classification_type": "U",
        "meta_norad_cat_id": 30437,
        "meta_element_set_no": 999,
        "meta_rev_at_epoch": 99173,
        "meta_bstar": 0.0033467379,
        "meta_mean_motion_dot": 0.00031121,
        "meta_mean_motion_ddot": 0,
        "tle_line1": "1 30437U 99025AEY 25345.78342124  .00031121  00000+0  33467-2 0  9994",
        "tle_line2": "2 30437  98.9221   5.4293 0035820 105.1047 311.0183 14.87973530991732"
      },
      "geometry": {
        "type": "Point",
        "coordinates": [
          -171.71692014665732,
          13.433991773796162
        ]
      }
    },
    {
      "type": "Feature",
      "properties": {
        "norad_id": 30438,
        "name": "FENGYUN 1C DEB",
        "group": "fengyun-1c-debris",
        "lat": 81.23481966813911,
        "lon": -89.26567243261702,
        "alt_km": 924.954792888152,
        "timestamp": "2025-12-12T09:49:09.007958+00:00",
        "meta_object_name": "FENGYUN 1C DEB",
        "meta_object_id": "1999-025AEZ",
        "meta_epoch": "2025-12-12T00:45:11.543040",
        "meta_mean_motion": 13.92095428,
        "meta_eccentricity": 0.0134809,
        "meta_inclination": 98.7501,
        "meta_ra_of_asc_node": 3.0993,
        "meta_arg_of_pericenter": 188.7087,
        "meta_mean_anomaly": 171.1733,
        "meta_ephemeris_type": 0,
        "meta_classification_type": "U",
        "meta_norad_cat_id": 30438,
        "meta_element_set_no": 999,
        "meta_rev_at_epoch": 95296,
        "meta_bstar": 0.0017784,
        "meta_mean_motion_dot": 2.409e-05,
        "meta_mean_motion_ddot": 0,
        "tle_line1": "1 30438U 99025AEZ 25346.03138360  .00002409  00000+0  17784-2 0  9990",
        "tle_line2": "2 30438  98.7501   3.0993 0134809 188.7087 171.1733 13.92095428952965"
      },
      "geometry": {
        "type": "Point",
        "coordinates": [
          -89.26567243261702,
          81.23481966813911
        ]
      }
    },
    {
      "type": "Feature",
      "properties": {
        "norad_id": 30439,
        "name": "FENGYUN 1C DEB",
        "group": "fengyun-1c-debris",
        "lat": 0.2799092813078318,
        "lon": -1.9094793954532965,
        "alt_km": 840.2423278900806,
        "timestamp": "2025-12-12T09:49:09.007969+00:00",
        "meta_object_name": "FENGYUN 1C DEB",
        "meta_object_id": "1999-025AFA",
        "meta_epoch": "2025-12-11T23:41:05.618112",
        "meta_mean_motion": 14.08837865,
        "meta_eccentricity": 0.0038822,
        "meta_inclination": 98.75,
        "meta_ra_of_asc_node": 357.7238,
        "meta_arg_of_pericenter": 338.9478,
        "meta_mean_anomaly": 40.8412,
        "meta_ephemeris_type": 0,
        "meta_classification_type": "U",
        "meta_norad_cat_id": 30439,
        "meta_element_set_no": 999,
        "meta_rev_at_epoch": 96781,
        "meta_bstar": 0.00069337,
        "meta_mean_motion_dot": 1.163e-05,
        "meta_mean_motion_ddot": 0,
        "tle_line1": "1 30439U 99025AFA 25345.98687058  .00001163  00000+0  69337-3 0  9995",
        "tle_line2": "2 30439  98.7500 357.7238 0038822 338.9478  40.8412 14.08837865967810"
      },
      "geometry": {
        "type": "Point",
        "coordinates": [
          -1.9094793954532965,
          0.2799092813078318
        ]
      }
    },
    {
      "type": "Feature",
      "properties": {
        "norad_id": 30441,
        "name": "FENGYUN 1C DEB",
        "group": "fengyun-1c-debris",
        "lat": 46.30987934630212,
        "lon": 66.08962842389207,
        "alt_km": 1082.6394956970007,
        "timestamp": "2025-12-12T09:49:09.007979+00:00",
        "meta_object_name": "FENGYUN 1C DEB",
        "meta_object_id": "1999-025AFC",
        "meta_epoch": "2025-12-12T04:21:27.921024",
        "meta_mean_motion": 13.77677198,
        "meta_eccentricity": 0.0183792,
        "meta_inclination": 99.1348,
        "meta_ra_of_asc_node": 75.567,
        "meta_arg_of_pericenter": 259.1686,
        "meta_mean_anomaly": 98.8733,
        "meta_ephemeris_type": 0,
        "meta_classification_type": "U",
        "meta_norad_cat_id": 30441,
        "meta_element_set_no": 999,
        "meta_rev_at_epoch": 94862,
        "meta_bstar": 0.00084525,
        "meta_mean_motion_dot": 9.12e-06,
        "meta_mean_motion_ddot": 0,
        "tle_line1": "1 30441U 99025AFC 25346.18157316  .00000912  00000+0  84525-3 0  9997",
        "tle_line2": "2 30441  99.1348  75.5670 0183792 259.1686  98.8733 13.77677198948628"
      },
      "geometry": {
        "type": "Point",
        "coordinates": [
          66.08962842389207,
          46.30987934630212
        ]
      }
    },
    {
      "type": "Feature",
      "properties": {
        "norad_id": 30442,
        "name": "FENGYUN 1C DEB",
        "group": "fengyun-1c-debris",
        "lat": 34.281235267400746,
        "lon": 73.89125586835252,
        "alt_km": 804.9484139834285,
        "timestamp": "2025-12-12T09:49:09.007990+00:00",
        "meta_object_name": "FENGYUN 1C DEB",
        "meta_object_id": "1999-025AFD",
        "meta_epoch": "2025-12-11T16:50:52.484640",
        "meta_mean_motion": 14.28593523,
        "meta_eccentricity": 0.00545722,
        "meta_inclination": 98.8661,
        "meta_ra_of_asc_node": 79.2809,
        "meta_arg_of_pericenter": 290.5662,
        "meta_mean_anomaly": 68.9669,
        "meta_ephemeris_type": 0,
        "meta_classification_type": "U",
        "meta_norad_cat_id": 30442,
        "meta_element_set_no": 999,
        "meta_rev_at_epoch": 97147,
        "meta_bstar": 0.003311848,
        "meta_mean_motion_dot": 8.409e-05,
        "meta_mean_motion_ddot": 0,
        "tle_line1": "1 30442U 99025AFD 25345.70199635  .00008409  00000+0  33118-2 0  9995",
        "tle_line2": "2 30442  98.8661  79.2809 0054572 290.5662  68.9669 14.28593523971475"
      },
      "geometry": {
        "type": "Point",
        "coordinates": [
          73.89125586835252,
          34.281235267400746
        ]
      }
    },
    {
      "type": "Feature",
      "properties": {
        "norad_id": 30443,
        "name": "FENGYUN 1C DEB",
        "group": "fengyun-1c-debris",
        "lat": -9.59571062919571,
        "lon": 112.007443826968,
        "alt_km": 790.4912147580453,
        "timestamp": "2025-12-12T09:49:09.008001+00:00",
        "meta_object_name": "FENGYUN 1C DEB",
        "meta_object_id": "1999-025AFE",
        "meta_epoch": "2025-12-11T14:33:12.262752",
        "meta_mean_motion": 14.36770892,
        "meta_eccentricity": 0.0027887,
        "meta_inclination": 98.8482,
        "meta_ra_of_asc_node": 292.6918,
        "meta_arg_of_pericenter": 342.0905,
        "meta_mean_anomaly": 17.9295,
        "meta_ephemeris_type": 0,
        "meta_classification_type": "U",
        "meta_norad_cat_id": 30443,
        "meta_element_set_no": 999,
        "meta_rev_at_epoch": 97417,
        "meta_bstar": 0.0039341901,
        "meta_mean_motion_dot": 0.00011633,
        "meta_mean_motion_ddot": 0,
        "tle_line1": "1 30443U 99025AFE 25345.60639193  .00011633  00000+0  39342-2 0  9991",
        "tle_line2": "2 30443  98.8482 292.6918 0027887 342.0905  17.9295 14.36770892974175"
      },
      "geometry": {
        "type": "Point",
        "coordinates": [
          112.007443826968,
          -9.59571062919571
        ]
      }
    }
  ]
}